CCSDS_OMM_VERS = 2.0
CREATION_DATE  = 
ORIGINATOR     = 

OBJECT_NAME    = STARLINK-36623
OBJECT_ID      = 2026-020AD
CENTER_NAME    = EARTH
REF_FRAME      = TEME
TIME_SYSTEM    = UTC
MEAN_ELEMENT_THEORY = SGP/SGP4

EPOCH          = 2026-02-06T06:00:02.000160
MEAN_MOTION    = 15.95527336
ECCENTRICITY   = .00017366
INCLINATION    = 43.0003
RA_OF_ASC_NODE = 333.4961
ARG_OF_PERICENTER = 263.6007
MEAN_ANOMALY   = 13.0841

EPHEMERIS_TYPE = 0
CLASSIFICATION_TYPE = U
NORAD_CAT_ID   = 67644
ELEMENT_SET_NO = 999
REV_AT_EPOCH   = 233
BSTAR          = -.38823066E-2
MEAN_MOTION_DOT = -.1604281E-1
MEAN_MOTION_DDOT = .74360042E-3

CCSDS_OMM_VERS = 2.0
CREATION_DATE  = 
ORIGINATOR     = 

OBJECT_NAME    = STARLINK-36619
OBJECT_ID      = 2026-020AE
CENTER_NAME    = EARTH
REF_FRAME      = TEME
TIME_SYSTEM    = UTC
MEAN_ELEMENT_THEORY = SGP/SGP4

EPOCH          = 2026-02-06T06:00:02.000160
MEAN_MOTION    = 15.95369476
ECCENTRICITY   = .00017953
INCLINATION    = 43.0003
RA_OF_ASC_NODE = 333.5017
ARG_OF_PERICENTER = 265.2365
MEAN_ANOMALY   = 9.2584

EPHEMERIS_TYPE = 0
CLASSIFICATION_TYPE = U
NORAD_CAT_ID   = 67645
ELEMENT_SET_NO = 999
REV_AT_EPOCH   = 233
BSTAR          = -.39408838E-2
MEAN_MOTION_DOT = -.1614497E-1
MEAN_MOTION_DDOT = .7511441E-3

CCSDS_OMM_VERS = 2.0
CREATION_DATE  = 
ORIGINATOR     = 

OBJECT_NAME    = ALSAT-3B
OBJECT_ID      = 2026-021A
CENTER_NAME    = EARTH
REF_FRAME      = TEME
TIME_SYSTEM    = UTC
MEAN_ELEMENT_THEORY = SGP/SGP4

EPOCH          = 2026-02-06T06:06:13.345632
MEAN_MOTION    = 15.23468436
ECCENTRICITY   = .00114271
INCLINATION    = 97.4725
RA_OF_ASC_NODE = 111.7252
ARG_OF_PERICENTER = 242.5328
MEAN_ANOMALY   = 117.4747

EPHEMERIS_TYPE = 0
CLASSIFICATION_TYPE = U
NORAD_CAT_ID   = 67646
ELEMENT_SET_NO = 999
REV_AT_EPOCH   = 93
BSTAR          = .38395119E-3
MEAN_MOTION_DOT = .9102E-4
MEAN_MOTION_DDOT = 0

CCSDS_OMM_VERS = 2.0
CREATION_DATE  = 
ORIGINATOR     = 

OBJECT_NAME    = CZ-2C R/B
OBJECT_ID      = 2026-021B
CENTER_NAME    = EARTH
REF_FRAME      = TEME
TIME_SYSTEM    = UTC
MEAN_ELEMENT_THEORY = SGP/SGP4

EPOCH          = 2026-02-06T06:08:52.786464
MEAN_MOTION    = 15.23206013
ECCENTRICITY   = .01541941
INCLINATION    = 97.6566
RA_OF_ASC_NODE = 112.0908
ARG_OF_PERICENTER = 120.3683
MEAN_ANOMALY   = 241.2901

EPHEMERIS_TYPE = 0
CLASSIFICATION_TYPE = U
NORAD_CAT_ID   = 67647
ELEMENT_SET_NO = 999
REV_AT_EPOCH   = 91
BSTAR          = .53838125E-3
MEAN_MOTION_DOT = .17751E-3
MEAN_MOTION_DDOT = 0

CCSDS_OMM_VERS = 2.0
CREATION_DATE  = 
ORIGINATOR     = 

OBJECT_NAME    = 2026-023E
OBJECT_ID      = 2026-023E
CENTER_NAME    = EARTH
REF_FRAME      = TEME
TIME_SYSTEM    = UTC
MEAN_ELEMENT_THEORY = SGP/SGP4

EPOCH          = 2026-02-06T01:01:39.423360
MEAN_MOTION    = 15.22213970
ECCENTRICITY   = .0018142
INCLINATION    = 96.6391
RA_OF_ASC_NODE = 113.6651
ARG_OF_PERICENTER = 239.5703
MEAN_ANOMALY   = 120.3743

EPHEMERIS_TYPE = 0
CLASSIFICATION_TYPE = U
NORAD_CAT_ID   = 67678
ELEMENT_SET_NO = 999
REV_AT_EPOCH   = 3
BSTAR          = .28625E-3
MEAN_MOTION_DOT = .6547E-4
MEAN_MOTION_DDOT = 0

