STARLINK-36623          
1 67644U 26020AD  26037.25002315 -.01604281  74360-3 -38823-2 0  9996
2 67644  43.0003 333.4961 0001736 263.6007  13.0841 15.95527336  2330
STARLINK-36619          
1 67645U 26020AE  26037.25002315 -.01614497  75114-3 -39409-2 0  9996
2 67645  43.0003 333.5017 0001795 265.2365   9.2584 15.95369476  2334
ALSAT-3B                
1 67646U 26021A   26037.25432113  .00009102  00000+0  38395-3 0  9991
2 67646  97.4725 111.7252 0011427 242.5328 117.4747 15.23468436   930
CZ-2C R/B               
1 67647U 26021B   26037.25616651  .00017751  00000+0  53838-3 0  9991
2 67647  97.6566 112.0908 0154194 120.3683 241.2901 15.23206013   911
2026-023E               
1 67678U 26023E   26037.04281740  .00006547  00000+0  28625-3 0  9998
2 67678  96.6391 113.6651 0018142 239.5703 120.3743 15.22213970    33
